STARLINK-31711          
1 59438U 24065T   26068.89993479 -.00000088  00000+0  91714-5 0  9999
2 59438  53.1599 280.5503 0001208 104.8022 255.3113 15.30193285108965
TEVEL2-5                
1 63214U 25052E   26068.96660006  .00021339  00000+0  71765-3 0  9991
2 63214  97.4013 325.3677 0004700  95.3936 264.7842 15.30817434 54919
